{"type": "FeatureCollection", "features": [ {"type": "Feature", "properties": {"norad_id": 34547, "name": "COSMOS 2251 DEB", "group": "cosmos-2251-debris", "lat": 3.4012410853279533, "lon": -95.31807310224534, "alt_km": 643.8166217829976, "timestamp": "2025-12-20T11:30:28.770584+00:00", "meta": {"OBJECT_NAME": "COSMOS 2251 DEB", "OBJECT_ID": "1993-036UH", "EPOCH": "2025-12-18T22:50:15.370656", "MEAN_MOTION": 14.72476564, "ECCENTRICITY": 0.00166938, "INCLINATION": 74.0316, "RA_OF_ASC_NODE": 88.6306, "ARG_OF_PERICENTER": 167.5365, "MEAN_ANOMALY": 192.6223, "EPHEMERIS_TYPE": 0, "CLASSIFICATION_TYPE": "U", "NORAD_CAT_ID": 34547, "ELEMENT_SET_NO": 999, "REV_AT_EPOCH": 88613, "BSTAR": 0.0013141249, "MEAN_MOTION_DOT": 8.336e-05, "MEAN_MOTION_DDOT": 0}, "tle": {"line1": "1 34547U 93036UH  25352.95156679  .00008336  00000+0  13141-2 0  9990", "line2": "2 34547  74.0316  88.6306 0016693 167.5365 192.6223 14.72476564886132"}}, "geometry": {"type": "Point", "coordinates": [-95.31807310224534, 3.4012410853279533]}}, {"type": "Feature", "properties": {"norad_id": 34553, "name": "COSMOS 2251 DEB", "group": "cosmos-2251-debris", "lat": 23.357562208728687, "lon": -175.726828891194, "alt_km": 708.3388608969917, "timestamp": "2025-12-20T11:30:28.770595+00:00", "meta": {"OBJECT_NAME": "COSMOS 2251 DEB", "OBJECT_ID": "1993-036UP", "EPOCH": "2025-12-19T07:38:57.477984", "MEAN_MOTION": 14.57779976, "ECCENTRICITY": 0.0019139, "INCLINATION": 74.0238, "RA_OF_ASC_NODE": 179.3741, "ARG_OF_PERICENTER": 256.193, "MEAN_ANOMALY": 158.8027, "EPHEMERIS_TYPE": 0, "CLASSIFICATION_TYPE": "U", "NORAD_CAT_ID": 34553, "ELEMENT_SET_NO": 999, "REV_AT_EPOCH": 88192, "BSTAR": 0.00076906, "MEAN_MOTION_DOT": 3.497e-05, "MEAN_MOTION_DDOT": 0}, "tle": {"line1": "1 34553U 93036UP  25353.31872081  .00003497  00000+0  76906-3 0  9992", "line2": "2 34553  74.0238 179.3741 0019139 256.1930 158.8027 14.57779976881928"}}, "geometry": {"type": "Point", "coordinates": [-175.726828891194, 23.357562208728687]}}, {"type": "Feature", "properties": {"norad_id": 34554, "name": "COSMOS 2251 DEB", "group": "cosmos-2251-debris", "lat": -57.718053641022166, "lon": -102.19664261873983, "alt_km": 760.6474839819966, "timestamp": "2025-12-20T11:30:28.770605+00:00", "meta": {"OBJECT_NAME": "COSMOS 2251 DEB", "OBJECT_ID": "1993-036UQ", "EPOCH": "2025-12-18T13:50:31.745184", "MEAN_MOTION": 14.37950273, "ECCENTRICITY": 0.00232506, "INCLINATION": 74.0391, "RA_OF_ASC_NODE": 288.2435, "ARG_OF_PERICENTER": 349.3985, "MEAN_ANOMALY": 183.4669, "EPHEMERIS_TYPE": 0, "CLASSIFICATION_TYPE": "U", "NORAD_CAT_ID": 34554, "ELEMENT_SET_NO": 999, "REV_AT_EPOCH": 87839, "BSTAR": 0.00025927252, "MEAN_MOTION_DOT": 7.59e-06, "MEAN_MOTION_DDOT": 0}, "tle": {"line1": "1 34554U 93036UQ  25352.57675631  .00000759  00000+0  25927-3 0  9997", "line2": "2 34554  74.0391 288.2435 0023250 349.3985 183.4669 14.37950273878395"}}, "geometry": {"type": "Point", "coordinates": [-102.19664261873983, -57.718053641022166]}}, {"type": "Feature", "properties": {"norad_id": 34556, "name": "COSMOS 2251 DEB", "group": "cosmos-2251-debris", "lat": 47.303472571789385, "lon": -88.45667003881195, "alt_km": 627.2962647909062, "timestamp": "2025-12-20T11:30:28.770615+00:00", "meta": {"OBJECT_NAME": "COSMOS 2251 DEB", "OBJECT_ID": "1993-036US", "EPOCH": "2025-12-19T10:53:06.238752", "MEAN_MOTION": 14.77997047, "ECCENTRICITY": 0.0006967, "INCLINATION": 74.016, "RA_OF_ASC_NODE": 111.6585, "ARG_OF_PERICENTER": 172.0151, "MEAN_ANOMALY": 261.4473, "EPHEMERIS_TYPE": 0, "CLASSIFICATION_TYPE": "U", "NORAD_CAT_ID": 34556, "ELEMENT_SET_NO": 999, "REV_AT_EPOCH": 88428, "BSTAR": 0.0013856, "MEAN_MOTION_DOT": 9.984e-05, "MEAN_MOTION_DDOT": 0}, "tle": {"line1": "1 34556U 93036US  25353.45354443  .00009984  00000+0  13856-2 0  9998", "line2": "2 34556  74.0160 111.6585 0006967 172.0151 261.4473 14.77997047884287"}}, "geometry": {"type": "Point", "coordinates": [-88.45667003881195, 47.303472571789385]}}, {"type": "Feature", "properties": {"norad_id": 34560, "name": "COSMOS 2251 DEB", "group": "cosmos-2251-debris", "lat": -43.211997535976, "lon": -37.323560414516685, "alt_km": 650.4726982405755, "timestamp": "2025-12-20T11:30:28.770626+00:00", "meta": {"OBJECT_NAME": "COSMOS 2251 DEB", "OBJECT_ID": "1993-036UW", "EPOCH": "2025-12-20T03:08:10.171392", "MEAN_MOTION": 14.72311873, "ECCENTRICITY": 0.0014102, "INCLINATION": 74.017, "RA_OF_ASC_NODE": 127.7353, "ARG_OF_PERICENTER": 209.7771, "MEAN_ANOMALY": 327.3808, "EPHEMERIS_TYPE": 0, "CLASSIFICATION_TYPE": "U", "NORAD_CAT_ID": 34560, "ELEMENT_SET_NO": 999, "REV_AT_EPOCH": 88360, "BSTAR": 0.0012678, "MEAN_MOTION_DOT": 8.005e-05, "MEAN_MOTION_DDOT": 0}, "tle": {"line1": "1 34560U 93036UW  25354.13067328  .00008005  00000+0  12678-2 0  9996", "line2": "2 34560  74.0170 127.7353 0014102 209.7771 327.3808 14.72311873883601"}}, "geometry": {"type": "Point", "coordinates": [-37.323560414516685, -43.211997535976]}}, {"type": "Feature", "properties": {"norad_id": 34563, "name": "COSMOS 2251 DEB", "group": "cosmos-2251-debris", "lat": -5.343793540902264, "lon": -172.27580577662624, "alt_km": 737.1907139489667, "timestamp": "2025-12-20T11:30:28.770636+00:00", "meta": {"OBJECT_NAME": "COSMOS 2251 DEB", "OBJECT_ID": "1993-036UZ", "EPOCH": "2025-12-20T00:30:18.501408", "MEAN_MOTION": 14.46530475, "ECCENTRICITY": 0.0013897, "INCLINATION": 74.0369, "RA_OF_ASC_NODE": 190.1141, "ARG_OF_PERICENTER": 283.7366, "MEAN_ANOMALY": 204.2441, "EPHEMERIS_TYPE": 0, "CLASSIFICATION_TYPE": "U", "NORAD_CAT_ID": 34563, "ELEMENT_SET_NO": 999, "REV_AT_EPOCH": 88302, "BSTAR": 0.00029396, "MEAN_MOTION_DOT": 1.033e-05, "MEAN_MOTION_DDOT": 0}, "tle": {"line1": "1 34563U 93036UZ  25354.02104747  .00001033  00000+0  29396-3 0  9994", "line2": "2 34563  74.0369 190.1141 0013897 283.7366 204.2441 14.46530475883029"}}, "geometry": {"type": "Point", "coordinates": [-172.27580577662624, -5.343793540902264]}}, {"type": "Feature", "properties": {"norad_id": 34564, "name": "COSMOS 2251 DEB", "group": "cosmos-2251-debris", "lat": -27.74291572149138, "lon": -144.96935840744646, "alt_km": 747.8936358331985, "timestamp": "2025-12-20T11:30:28.770646+00:00", "meta": {"OBJECT_NAME": "COSMOS 2251 DEB", "OBJECT_ID": "1993-036VA", "EPOCH": "2025-12-20T02:20:50.784864", "MEAN_MOTION": 14.40701931, "ECCENTRICITY": 0.0019288, "INCLINATION": 74.0317, "RA_OF_ASC_NODE": 224.3984, "ARG_OF_PERICENTER": 327.2619, "MEAN_ANOMALY": 185.0207, "EPHEMERIS_TYPE": 0, "CLASSIFICATION_TYPE": "U", "NORAD_CAT_ID": 34564, "ELEMENT_SET_NO": 999, "REV_AT_EPOCH": 88112, "BSTAR": 0.00017496, "MEAN_MOTION_DOT": 5.33e-06, "MEAN_MOTION_DDOT": 0}, "tle": {"line1": "1 34564U 93036VA  25354.09781001  .00000533  00000+0  17496-3 0  9998", "line2": "2 34564  74.0317 224.3984 0019288 327.2619 185.0207 14.40701931881129"}}, "geometry": {"type": "Point", "coordinates": [-144.96935840744646, -27.74291572149138]}}, {"type": "Feature", "properties": {"norad_id": 34567, "name": "COSMOS 2251 DEB", "group": "cosmos-2251-debris", "lat": -73.63724454483004, "lon": 65.78357309452998, "alt_km": 790.2802294108014, "timestamp": "2025-12-20T11:30:28.770656+00:00", "meta": {"OBJECT_NAME": "COSMOS 2251 DEB", "OBJECT_ID": "1993-036VD", "EPOCH": "2025-12-19T21:18:12.319776", "MEAN_MOTION": 14.24023935, "ECCENTRICITY": 0.0074256, "INCLINATION": 74.0406, "RA_OF_ASC_NODE": 143.9154, "ARG_OF_PERICENTER": 216.6721, "MEAN_ANOMALY": 263.2898, "EPHEMERIS_TYPE": 0, "CLASSIFICATION_TYPE": "U", "NORAD_CAT_ID": 34567, "ELEMENT_SET_NO": 999, "REV_AT_EPOCH": 87226, "BSTAR": 0.00017425, "MEAN_MOTION_DOT": 3.86e-06, "MEAN_MOTION_DDOT": 0}, "tle": {"line1": "1 34567U 93036VD  25353.88764259  .00000386  00000+0  17425-3 0  9991", "line2": "2 34567  74.0406 143.9154 0074256 216.6721 263.2898 14.24023935872260"}}, "geometry": {"type": "Point", "coordinates": [65.78357309452998, -73.63724454483004]}}, {"type": "Feature", "properties": {"norad_id": 34569, "name": "COSMOS 2251 DEB", "group": "cosmos-2251-debris", "lat": 70.26055791844632, "lon": -49.00730494428288, "alt_km": 802.1046817820361, "timestamp": "2025-12-20T11:30:28.770666+00:00", "meta": {"OBJECT_NAME": "COSMOS 2251 DEB", "OBJECT_ID": "1993-036VF", "EPOCH": "2025-12-19T00:14:44.283264", "MEAN_MOTION": 14.24767816, "ECCENTRICITY": 0.01575762, "INCLINATION": 73.9892, "RA_OF_ASC_NODE": 186.7976, "ARG_OF_PERICENTER": 13.7528, "MEAN_ANOMALY": 112.9889, "EPHEMERIS_TYPE": 0, "CLASSIFICATION_TYPE": "U", "NORAD_CAT_ID": 34569, "ELEMENT_SET_NO": 999, "REV_AT_EPOCH": 87057, "BSTAR": 0.00035668833, "MEAN_MOTION_DOT": 9.19e-06, "MEAN_MOTION_DDOT": 0}, "tle": {"line1": "1 34569U 93036VF  25353.01023476  .00000919  00000+0  35669-3 0  9999", "line2": "2 34569  73.9892 186.7976 0157576  13.7528 112.9889 14.24767816870579"}}, "geometry": {"type": "Point", "coordinates": [-49.00730494428288, 70.26055791844632]}}, {"type": "Feature", "properties": {"norad_id": 34570, "name": "COSMOS 2251 DEB", "group": "cosmos-2251-debris", "lat": 52.044327688334874, "lon": -133.52951093465242, "alt_km": 769.1689612664368, "timestamp": "2025-12-20T11:30:28.770676+00:00", "meta": {"OBJECT_NAME": "COSMOS 2251 DEB", "OBJECT_ID": "1993-036VG", "EPOCH": "2025-12-17T14:47:22.949376", "MEAN_MOTION": 13.99827814, "ECCENTRICITY": 0.01902686, "INCLINATION": 73.9566, "RA_OF_ASC_NODE": 209.802, "ARG_OF_PERICENTER": 91.1991, "MEAN_ANOMALY": 301.5791, "EPHEMERIS_TYPE": 0, "CLASSIFICATION_TYPE": "U", "NORAD_CAT_ID": 34570, "ELEMENT_SET_NO": 999, "REV_AT_EPOCH": 85669, "BSTAR": 0.00040162603, "MEAN_MOTION_DOT": 6.66e-06, "MEAN_MOTION_DDOT": 0}, "tle": {"line1": "1 34570U 93036VG  25351.61623784  .00000666  00000+0  40163-3 0  9997", "line2": "2 34570  73.9566 209.8020 0190268  91.1991 301.5791 13.99827814856696"}}, "geometry": {"type": "Point", "coordinates": [-133.52951093465242, 52.044327688334874]}}]}